{
  "norad_id": 43432,
  "name": "COSMOS 2526",
  "history": [
    {
      "epoch": "2026-03-27T10:18:01.648800Z",
      "apogee_km": 35790.88261447215,
      "perigee_km": 35782.04491415196,
      "latitude_deg": -0.02256943667140333,
      "longitude_deg": 128.0627657236399,
      "height_km": 35781.773309118245,
      "semi_major_axis_km": 42164.60076431206,
      "eccentricity": 0.0001048,
      "inclination_deg": 0.0048,
      "raan_deg": 211.5628,
      "arg_perigee_deg": 237.8588,
      "mean_anomaly_deg": 17.986,
      "mean_motion_rev_day": 1.00272253
    },
    {
      "epoch": "2026-03-30T20:26:42.859680Z",
      "apogee_km": 35789.40280074225,
      "perigee_km": 35782.766152281845,
      "latitude_deg": 0.03336523646323198,
      "longitude_deg": 128.08759983566466,
      "height_km": 35788.86994510423,
      "semi_major_axis_km": 42164.22147651205,
      "eccentricity": 7.87e-05,
      "inclination_deg": 0.029,
      "raan_deg": 117.0769,
      "arg_perigee_deg": 328.304,
      "mean_anomaly_deg": 177.6022,
      "mean_motion_rev_day": 1.00273606
    },
    {
      "epoch": "2026-03-30T22:09:30.009600Z",
      "apogee_km": 35789.08954120641,
      "perigee_km": 35783.380485235815,
      "latitude_deg": 0.028749643795241763,
      "longitude_deg": 128.0721551340643,
      "height_km": 35788.307462812394,
      "semi_major_axis_km": 42164.37201322112,
      "eccentricity": 6.77e-05,
      "inclination_deg": 0.0035,
      "raan_deg": 209.0838,
      "arg_perigee_deg": 235.3437,
      "mean_anomaly_deg": 204.3107,
      "mean_motion_rev_day": 1.00273069
    },
    {
      "epoch": "2026-04-01T16:56:27.834144Z",
      "apogee_km": 35787.961853315144,
      "perigee_km": 35784.875407842985,
      "latitude_deg": 0.008317834247418296,
      "longitude_deg": 128.07209256225286,
      "height_km": 35786.84540703381,
      "semi_major_axis_km": 42164.55563057907,
      "eccentricity": 3.66e-05,
      "inclination_deg": 0.0054,
      "raan_deg": 197.1218,
      "arg_perigee_deg": 247.6822,
      "mean_anomaly_deg": 127.4309,
      "mean_motion_rev_day": 1.00272414
    },
    {
      "epoch": "2026-04-02T06:37:59.072160Z",
      "apogee_km": 35787.96979573274,
      "perigee_km": 35785.023331139324,
      "latitude_deg": -0.022783928602399438,
      "longitude_deg": 128.06682021649416,
      "height_km": 35784.656513431655,
      "semi_major_axis_km": 42164.63356343604,
      "eccentricity": 3.494e-05,
      "inclination_deg": 0.006,
      "raan_deg": 187.4417,
      "arg_perigee_deg": 255.5616,
      "mean_anomaly_deg": 335.1755,
      "mean_motion_rev_day": 1.00272136
    },
    {
      "epoch": "2026-04-06T15:01:28.133184Z",
      "apogee_km": 35787.4000999328,
      "perigee_km": 35786.986879694,
      "latitude_deg": 0.009233291400800769,
      "longitude_deg": 128.08011825510184,
      "height_km": 35786.88588486613,
      "semi_major_axis_km": 42165.3304898134,
      "eccentricity": 4.9e-06,
      "inclination_deg": 0.0259,
      "raan_deg": 126.0579,
      "arg_perigee_deg": 254.1228,
      "mean_anomaly_deg": 168.1765,
      "mean_motion_rev_day": 1.0026965
    },
    {
      "epoch": "2026-04-07T13:16:19.239744Z",
      "apogee_km": 35788.04440076952,
      "perigee_km": 35786.121666735984,
      "latitude_deg": -0.010177011968032355,
      "longitude_deg": 128.07400441059238,
      "height_km": 35787.079627230305,
      "semi_major_axis_km": 42165.220033752754,
      "eccentricity": 2.28e-05,
      "inclination_deg": 0.0064,
      "raan_deg": 169.6799,
      "arg_perigee_deg": 231.9092,
      "mean_anomaly_deg": 121.3871,
      "mean_motion_rev_day": 1.00270044
    },
    {
      "epoch": "2026-04-09T20:02:07.881216Z",
      "apogee_km": 35787.26860463389,
      "perigee_km": 35786.23978128878,
      "latitude_deg": 0.02484681856791334,
      "longitude_deg": 128.0634060753592,
      "height_km": 35786.505424089264,
      "semi_major_axis_km": 42164.89119296134,
      "eccentricity": 1.22e-05,
      "inclination_deg": 0.0259,
      "raan_deg": 123.9805,
      "arg_perigee_deg": 21.5565,
      "mean_anomaly_deg": 121.1325,
      "mean_motion_rev_day": 1.00271217
    },
    {
      "epoch": "2026-04-10T13:08:50.102304Z",
      "apogee_km": 35787.55837014508,
      "perigee_km": 35785.568196291715,
      "latitude_deg": -0.010396337102573075,
      "longitude_deg": 128.06936465326166,
      "height_km": 35785.47268291467,
      "semi_major_axis_km": 42164.7002832184,
      "eccentricity": 2.36e-05,
      "inclination_deg": 0.0187,
      "raan_deg": 166.7626,
      "arg_perigee_deg": 303.2637,
      "mean_anomaly_deg": 54.0274,
      "mean_motion_rev_day": 1.00271898
    },
    {
      "epoch": "2026-04-11T20:31:38.397792Z",
      "apogee_km": 35787.91753607402,
      "perigee_km": 35786.10443471065,
      "latitude_deg": 0.024102881505361107,
      "longitude_deg": 128.0502052156746,
      "height_km": 35786.009910795,
      "semi_major_axis_km": 42165.14798539234,
      "eccentricity": 2.15e-05,
      "inclination_deg": 0.0266,
      "raan_deg": 121.6403,
      "arg_perigee_deg": 97.0431,
      "mean_anomaly_deg": 57.3427,
      "mean_motion_rev_day": 1.00270301
    },
    {
      "epoch": "2026-04-13T06:10:33.705120Z",
      "apogee_km": 35786.50229791737,
      "perigee_km": 35785.788878255975,
      "latitude_deg": -0.027013046083790376,
      "longitude_deg": 128.06023914033918,
      "height_km": 35785.98856966896,
      "semi_major_axis_km": 42164.28258808667,
      "eccentricity": 8.46e-06,
      "inclination_deg": 0.0168,
      "raan_deg": 155.592,
      "arg_perigee_deg": 74.3997,
      "mean_anomaly_deg": 192.1616,
      "mean_motion_rev_day": 1.00273388
    },
    {
      "epoch": "2026-04-14T19:08:38.562720Z",
      "apogee_km": 35788.655717630434,
      "perigee_km": 35784.51514188782,
      "latitude_deg": 0.026377428328402508,
      "longitude_deg": 128.04118621205103,
      "height_km": 35784.02621821424,
      "semi_major_axis_km": 42164.72242975913,
      "eccentricity": 4.91e-05,
      "inclination_deg": 0.0257,
      "raan_deg": 125.7541,
      "arg_perigee_deg": 124.3619,
      "mean_anomaly_deg": 8.0591,
      "mean_motion_rev_day": 1.00271819
    },
    {
      "epoch": "2026-04-15T07:48:01.768608Z",
      "apogee_km": 35787.669692284675,
      "perigee_km": 35785.24269830035,
      "latitude_deg": -0.03598314107537584,
      "longitude_deg": 128.0548318726107,
      "height_km": 35787.00789096377,
      "semi_major_axis_km": 42164.59319529252,
      "eccentricity": 2.878e-05,
      "inclination_deg": 0.0227,
      "raan_deg": 157.9732,
      "arg_perigee_deg": 81.2981,
      "mean_anomaly_deg": 209.2875,
      "mean_motion_rev_day": 1.0027228
    },
    {
      "epoch": "2026-04-16T15:03:40.016736Z",
      "apogee_km": 35788.35676166683,
      "perigee_km": 35785.1353646008,
      "latitude_deg": 0.005973986429888558,
      "longitude_deg": 128.04124973463516,
      "height_km": 35786.01441568582,
      "semi_major_axis_km": 42164.88306313381,
      "eccentricity": 3.82e-05,
      "inclination_deg": 0.028,
      "raan_deg": 115.533,
      "arg_perigee_deg": 165.3856,
      "mean_anomaly_deg": 277.8246,
      "mean_motion_rev_day": 1.00271246
    },
    {
      "epoch": "2026-04-17T21:24:20.679264Z",
      "apogee_km": 35787.76915967144,
      "perigee_km": 35786.0100347618,
      "latitude_deg": 0.021987626636444383,
      "longitude_deg": 128.05475948531748,
      "height_km": 35785.6738041538,
      "semi_major_axis_km": 42165.02659721662,
      "eccentricity": 2.086e-05,
      "inclination_deg": 0.0165,
      "raan_deg": 154.4019,
      "arg_perigee_deg": 104.2524,
      "mean_anomaly_deg": 36.5127,
      "mean_motion_rev_day": 1.00270734
    },
    {
      "epoch": "2026-04-19T00:47:05.726688Z",
      "apogee_km": 35787.12145894524,
      "perigee_km": 35785.65244693072,
      "latitude_deg": 0.008323767595786756,
      "longitude_deg": 128.04891687927295,
      "height_km": 35786.58108373803,
      "semi_major_axis_km": 42164.52395293798,
      "eccentricity": 1.742e-05,
      "inclination_deg": 0.0272,
      "raan_deg": 112.551,
      "arg_perigee_deg": 38.275,
      "mean_anomaly_deg": 196.1478,
      "mean_motion_rev_day": 1.00272527
    },
    {
      "epoch": "2026-04-21T19:31:23.090880Z",
      "apogee_km": 35788.71960721789,
      "perigee_km": 35786.08004461259,
      "latitude_deg": 0.015229778010908166,
      "longitude_deg": 128.05850294887617,
      "height_km": 35788.16320605776,
      "semi_major_axis_km": 42165.53682591524,
      "eccentricity": 3.13e-05,
      "inclination_deg": 0.0141,
      "raan_deg": 167.5282,
      "arg_perigee_deg": 268.4432,
      "mean_anomaly_deg": 194.8165,
      "mean_motion_rev_day": 1.00268914
    },
    {
      "epoch": "2026-04-22T18:39:25.566336Z",
      "apogee_km": 35792.204417517954,
      "perigee_km": 35783.71216592621,
      "latitude_deg": 0.008372228947389362,
      "longitude_deg": 128.06436891790975,
      "height_km": 35790.09235058328,
      "semi_major_axis_km": 42166.095291722086,
      "eccentricity": 0.0001007,
      "inclination_deg": 0.0221,
      "raan_deg": 118.727,
      "arg_perigee_deg": 11.2639,
      "mean_anomaly_deg": 128.75,
      "mean_motion_rev_day": 1.00266922
    },
    {
      "epoch": "2026-04-23T14:18:16.365600Z",
      "apogee_km": 35787.892755033834,
      "perigee_km": 35784.3838440434,
      "latitude_deg": -0.003606502122908015,
      "longitude_deg": 128.06858317195298,
      "height_km": 35786.0618258771,
      "semi_major_axis_km": 42164.27529953862,
      "eccentricity": 4.161e-05,
      "inclination_deg": 0.0099,
      "raan_deg": 163.3416,
      "arg_perigee_deg": 286.8456,
      "mean_anomaly_deg": 104.0786,
      "mean_motion_rev_day": 1.00273414
    }
  ]
}